[{"OBJECT_NAME":"SDA_1665","OBJECT_ID":"2025-230B","EPOCH":"2026-03-09T22:47:20.541984","MEAN_MOTION":13.85178901,"ECCENTRICITY":0.00037609,"INCLINATION":81.3004,"RA_OF_ASC_NODE":303.6398,"ARG_OF_PERICENTER":117.7881,"MEAN_ANOMALY":242.3658,"EPHEMERIS_TYPE":0,"CLASSIFICATION_TYPE":"U","NORAD_CAT_ID":65975,"ELEMENT_SET_NO":999,"REV_AT_EPOCH":2008,"BSTAR":-0.026076654,"MEAN_MOTION_DOT":-0.00029429,"MEAN_MOTION_DDOT":0},{"OBJECT_NAME":"COSMOS 374 DEB","OBJECT_ID":"1970-089Z","EPOCH":"2026-03-09T15:35:29.785056","MEAN_MOTION":13.13780436,"ECCENTRICITY":0.0642879,"INCLINATION":63.3091,"RA_OF_ASC_NODE":133.4984,"ARG_OF_PERICENTER":292.8655,"MEAN_ANOMALY":60.5726,"EPHEMERIS_TYPE":0,"CLASSIFICATION_TYPE":"U","NORAD_CAT_ID":5028,"ELEMENT_SET_NO":999,"REV_AT_EPOCH":59357,"BSTAR":0.0008368,"MEAN_MOTION_DOT":7.97e-6,"MEAN_MOTION_DDOT":0}]
